{"type": "FeatureCollection", "features": [{"type": "Feature", "properties": {"id": 774528485, "kind": "yes"}, "geometry": {"type": "Polygon", "coordinates": [[[73.5586376, 19.6999318], [73.5587212, 19.6999751], [73.5587656, 19.699899], [73.558682, 19.6998557], [73.5586376, 19.6999318]]]}}, {"type": "Feature", "properties": {"id": 866606375, "kind": "yes"}, "geometry": {"type": "Polygon", "coordinates": [[[73.5573656, 19.6997777], [73.5575158, 19.6997462], [73.5575054, 19.6996759], [73.5574943, 19.699601], [73.5573374, 19.6996313], [73.5573656, 19.6997777]]]}}, {"type": "Feature", "properties": {"id": 866606376, "kind": "yes"}, "geometry": {"type": "Polygon", "coordinates": [[[73.5573012, 19.6998825], [73.5574353, 19.6998585], [73.5574554, 19.7000075], [73.5573227, 19.700029], [73.5573012, 19.6998825]]]}}, {"type": "Feature", "properties": {"id": 866606377, "kind": "yes"}, "geometry": {"type": "Polygon", "coordinates": [[[73.5575909, 19.6998383], [73.5574541, 19.6998674], [73.5574796, 19.7000391], [73.5576164, 19.7000126], [73.5575909, 19.6998383]]]}}, {"type": "Feature", "properties": {"id": 866606378, "kind": "yes"}, "geometry": {"type": "Polygon", "coordinates": [[[73.5570075, 19.699957], [73.5570236, 19.700077], [73.5571403, 19.7000568], [73.5571229, 19.6999381], [73.5570075, 19.699957]]]}}, {"type": "Feature", "properties": {"id": 866606380, "kind": "yes"}, "geometry": {"type": "Polygon", "coordinates": [[[73.5574327, 19.7005201], [73.5573549, 19.7004722], [73.557434, 19.7003686], [73.5575171, 19.7004255], [73.5574327, 19.7005201]]]}}, {"type": "Feature", "properties": {"id": 866606381, "kind": "yes"}, "geometry": {"type": "Polygon", "coordinates": [[[73.5574313, 19.7005302], [73.5575654, 19.7004987], [73.5575829, 19.7006047], [73.5574474, 19.7006338], [73.5574313, 19.7005302]]]}}, {"type": "Feature", "properties": {"id": 866606382, "kind": "yes"}, "geometry": {"type": "Polygon", "coordinates": [[[73.5577036, 19.7005593], [73.557717, 19.7004419], [73.5578645, 19.700457], [73.5578511, 19.7005732], [73.5577036, 19.7005593]]]}}, {"type": "Feature", "properties": {"id": 866606383, "kind": "yes"}, "geometry": {"type": "Polygon", "coordinates": [[[73.5575654, 19.700303], [73.5575815, 19.7001729], [73.5574756, 19.7001654], [73.5574581, 19.7002967], [73.5575654, 19.700303]]]}}, {"type": "Feature", "properties": {"id": 866606384, "kind": "yes"}, "geometry": {"type": "Polygon", "coordinates": [[[73.5576432, 19.7003295], [73.5575976, 19.7002045], [73.5577009, 19.7001654], [73.5577492, 19.7002954], [73.5576432, 19.7003295]]]}}, {"type": "Feature", "properties": {"id": 866606385, "kind": "yes"}, "geometry": {"type": "Polygon", "coordinates": [[[73.5576834, 19.700577], [73.5576834, 19.7006868], [73.5578256, 19.7006843], [73.5578269, 19.7005795], [73.5576834, 19.700577]]]}}, {"type": "Feature", "properties": {"id": 866606386, "kind": "yes"}, "geometry": {"type": "Polygon", "coordinates": [[[73.5575721, 19.7006249], [73.5573254, 19.7006969], [73.5573575, 19.700803], [73.5576016, 19.7007297], [73.5575721, 19.7006249]]]}}, {"type": "Feature", "properties": {"id": 866606387, "kind": "yes"}, "geometry": {"type": "Polygon", "coordinates": [[[73.5576673, 19.7009065], [73.5578082, 19.7008977], [73.5578041, 19.7007941], [73.5576647, 19.7008055], [73.5576673, 19.7009065]]]}}, {"type": "Feature", "properties": {"id": 866606388, "kind": "yes"}, "geometry": {"type": "Polygon", "coordinates": [[[73.5575346, 19.7008724], [73.5575721, 19.7009646], [73.5574501, 19.7010062], [73.5574125, 19.7009116], [73.5575346, 19.7008724]]]}}, {"type": "Feature", "properties": {"id": 866606389, "kind": "yes"}, "geometry": {"type": "Polygon", "coordinates": [[[73.5574353, 19.7010227], [73.557556, 19.7009936], [73.5575748, 19.7011035], [73.5574528, 19.7011262], [73.5574353, 19.7010227]]]}}, {"type": "Feature", "properties": {"id": 866606390, "kind": "yes"}, "geometry": {"type": "Polygon", "coordinates": [[[73.5576848, 19.7009229], [73.5578082, 19.7009141], [73.5578149, 19.7010163], [73.5576861, 19.7010252], [73.5576848, 19.7009229]]]}}, {"type": "Feature", "properties": {"id": 866618957, "kind": "yes"}, "geometry": {"type": "Polygon", "coordinates": [[[73.5572271, 19.6997844], [73.5573424, 19.6997692], [73.557321, 19.6996278], [73.5572043, 19.6996417], [73.5572271, 19.6997844]]]}}, {"type": "Feature", "properties": {"id": 866618958, "kind": "yes"}, "geometry": {"type": "Polygon", "coordinates": [[[73.5571694, 19.6996417], [73.5571896, 19.699792], [73.557089, 19.6998033], [73.5570715, 19.6996556], [73.5571694, 19.6996417]]]}}, {"type": "Feature", "properties": {"id": 866618959, "kind": "yes"}, "geometry": {"type": "Polygon", "coordinates": [[[73.5570367, 19.6996682], [73.5570608, 19.6997995], [73.5569508, 19.6998172], [73.556928, 19.6996821], [73.5570367, 19.6996682]]]}}, {"type": "Feature", "properties": {"id": 866618960, "kind": "yes"}, "geometry": {"type": "Polygon", "coordinates": [[[73.5567309, 19.6999523], [73.5568234, 19.6998437], [73.5567202, 19.699768], [73.5566263, 19.6998854], [73.5566974, 19.6999372], [73.556633, 19.7000192], [73.5567685, 19.7001139], [73.5568395, 19.7000218], [73.5567309, 19.6999523]]]}}, {"type": "Feature", "properties": {"id": 866618961, "kind": "yes"}, "geometry": {"type": "Polygon", "coordinates": [[[73.5570595, 19.7002276], [73.5571775, 19.7001985], [73.5571426, 19.7000748], [73.5570233, 19.7001038], [73.5570595, 19.7002276]]]}}, {"type": "Feature", "properties": {"id": 866618962, "kind": "yes"}, "geometry": {"type": "Polygon", "coordinates": [[[73.5571748, 19.7000697], [73.5572901, 19.7000546], [73.5573049, 19.700172], [73.5571949, 19.7001922], [73.5571748, 19.7000697]]]}}, {"type": "Feature", "properties": {"id": 866618963, "kind": "yes"}, "geometry": {"type": "Polygon", "coordinates": [[[73.5571091, 19.7004851], [73.5572164, 19.7004649], [73.5571936, 19.7003627], [73.557085, 19.7003841], [73.5571091, 19.7004851]]]}}, {"type": "Feature", "properties": {"id": 866618964, "kind": "yes"}, "geometry": {"type": "Polygon", "coordinates": [[[73.5573357, 19.7002036], [73.5574484, 19.7001922], [73.557439, 19.7000546], [73.5573264, 19.7000723], [73.5573357, 19.7002036]]]}}, {"type": "Feature", "properties": {"id": 866618965, "kind": "yes"}, "geometry": {"type": "Polygon", "coordinates": [[[73.5577877, 19.7000521], [73.5576992, 19.7001266], [73.557781, 19.7002225], [73.5578735, 19.7001531], [73.5577877, 19.7000521]]]}}, {"type": "Feature", "properties": {"id": 866618966, "kind": "yes"}, "geometry": {"type": "Polygon", "coordinates": [[[73.5578641, 19.7003122], [73.5579473, 19.700244], [73.5580438, 19.7003425], [73.5579553, 19.7004157], [73.5578641, 19.7003122]]]}}, {"type": "Feature", "properties": {"id": 866618967, "kind": "yes"}, "geometry": {"type": "Polygon", "coordinates": [[[73.5579674, 19.70022], [73.5580291, 19.7001127], [73.5582262, 19.7002086], [73.5581672, 19.7003185], [73.5579674, 19.70022]]]}}, {"type": "Feature", "properties": {"id": 866618968, "kind": "house"}, "geometry": {"type": "Polygon", "coordinates": [[[73.5580693, 19.6999675], [73.5582061, 19.7000003], [73.5582316, 19.6998993], [73.5581029, 19.6998639], [73.5580693, 19.6999675]]]}}, {"type": "Feature", "properties": {"id": 866618969, "kind": "apartments"}, "geometry": {"type": "Polygon", "coordinates": [[[73.5579044, 19.6998109], [73.558017, 19.6998223], [73.5580425, 19.6996341], [73.5579325, 19.6996215], [73.5579044, 19.6998109]]]}}, {"type": "Feature", "properties": {"id": 866618970, "kind": "apartments"}, "geometry": {"type": "Polygon", "coordinates": [[[73.5581096, 19.6998021], [73.5582101, 19.6998172], [73.558241, 19.6996417], [73.5581391, 19.6996215], [73.5581096, 19.6998021]]]}}, {"type": "Feature", "properties": {"id": 866618971, "kind": "apartments"}, "geometry": {"type": "Polygon", "coordinates": [[[73.5579446, 19.6995811], [73.5580506, 19.6995937], [73.5580827, 19.6994182], [73.5579755, 19.6994006], [73.5579446, 19.6995811]]]}}, {"type": "Feature", "properties": {"id": 866618972, "kind": "apartments"}, "geometry": {"type": "Polygon", "coordinates": [[[73.5581485, 19.699518], [73.5582638, 19.6995344], [73.558304, 19.6993412], [73.558186, 19.6993147], [73.5581485, 19.699518]]]}}, {"type": "Feature", "properties": {"id": 866618973, "kind": "apartments"}, "geometry": {"type": "Polygon", "coordinates": [[[73.5579755, 19.6993766], [73.5580814, 19.699393], [73.5581216, 19.699191], [73.558013, 19.6991708], [73.5579755, 19.6993766]]]}}, {"type": "Feature", "properties": {"id": 866657931, "kind": "house"}, "geometry": {"type": "Polygon", "coordinates": [[[73.5571762, 19.7007159], [73.5573043, 19.7006787], [73.5572748, 19.7005745], [73.557144, 19.7006124], [73.5571762, 19.7007159]]]}}, {"type": "Feature", "properties": {"id": 866657932, "kind": "house"}, "geometry": {"type": "Polygon", "coordinates": [[[73.5572057, 19.7008434], [73.5571762, 19.7007519], [73.5573016, 19.7007108], [73.5573338, 19.7008036], [73.5572057, 19.7008434]]]}}, {"type": "Feature", "properties": {"id": 866657933, "kind": "house"}, "geometry": {"type": "Polygon", "coordinates": [[[73.5574136, 19.7010196], [73.5572889, 19.70106], [73.5572473, 19.7009571], [73.557376, 19.700916], [73.5574136, 19.7010196]]]}}, {"type": "Feature", "properties": {"id": 866657934, "kind": "house"}, "geometry": {"type": "Polygon", "coordinates": [[[73.5580178, 19.7008983], [73.5581297, 19.700892], [73.558119, 19.700755], [73.5580077, 19.700762], [73.5580178, 19.7008983]]]}}, {"type": "Feature", "properties": {"id": 866657935, "kind": "house"}, "geometry": {"type": "Polygon", "coordinates": [[[73.557891, 19.7006818], [73.5579963, 19.7006711], [73.5579869, 19.7005391], [73.5578783, 19.7005486], [73.557891, 19.7006818]]]}}, {"type": "Feature", "properties": {"id": 1391331251, "kind": "yes"}, "geometry": {"type": "Polygon", "coordinates": [[[73.5594435, 19.6999252], [73.5594933, 19.6998368], [73.5593744, 19.6997774], [73.5593246, 19.6998658], [73.5594435, 19.6999252]]]}}, {"type": "Feature", "properties": {"id": 1391331252, "kind": "yes"}, "geometry": {"type": "Polygon", "coordinates": [[[73.5594649, 19.6999415], [73.5595723, 19.6999952], [73.559603, 19.6999407], [73.5594956, 19.699887], [73.5594649, 19.6999415]]]}}, {"type": "Feature", "properties": {"id": 1391331253, "kind": "yes"}, "geometry": {"type": "Polygon", "coordinates": [[[73.5593259, 19.7000839], [73.5593522, 19.7000373], [73.5592519, 19.6999872], [73.5592256, 19.7000338], [73.5593259, 19.7000839]]]}}, {"type": "Feature", "properties": {"id": 1391331254, "kind": "yes"}, "geometry": {"type": "Polygon", "coordinates": [[[73.5593185, 19.7001157], [73.5593985, 19.7001556], [73.559418, 19.7001211], [73.559338, 19.7000811], [73.5593185, 19.7001157]]]}}, {"type": "Feature", "properties": {"id": 1391331255, "kind": "yes"}, "geometry": {"type": "Polygon", "coordinates": [[[73.5591705, 19.7001335], [73.5592816, 19.700189], [73.5593177, 19.700125], [73.5592066, 19.7000695], [73.5591705, 19.7001335]]]}}, {"type": "Feature", "properties": {"id": 1391331256, "kind": "yes"}, "geometry": {"type": "Polygon", "coordinates": [[[73.5591335, 19.7001877], [73.5592343, 19.700238], [73.5592569, 19.7001978], [73.5591562, 19.7001474], [73.5591335, 19.7001877]]]}}, {"type": "Feature", "properties": {"id": 1391331257, "kind": "yes"}, "geometry": {"type": "Polygon", "coordinates": [[[73.5592124, 19.7002767], [73.5592343, 19.700238], [73.5591335, 19.7001877], [73.5591117, 19.7002264], [73.5592124, 19.7002767]]]}}, {"type": "Feature", "properties": {"id": 1391331258, "kind": "yes"}, "geometry": {"type": "Polygon", "coordinates": [[[73.5589625, 19.700135], [73.5589839, 19.700097], [73.5588786, 19.7000444], [73.5588572, 19.7000824], [73.5589625, 19.700135]]]}}, {"type": "Feature", "properties": {"id": 1391331259, "kind": "yes"}, "geometry": {"type": "Polygon", "coordinates": [[[73.5589272, 19.7001979], [73.5589533, 19.7001516], [73.5588317, 19.7000909], [73.5588057, 19.7001372], [73.5588416, 19.7001551], [73.5589272, 19.7001979]]]}}, {"type": "Feature", "properties": {"id": 1391331260, "kind": "yes"}, "geometry": {"type": "Polygon", "coordinates": [[[73.5589076, 19.7002325], [73.5589272, 19.7001979], [73.5588416, 19.7001551], [73.5588221, 19.7001898], [73.5589076, 19.7002325]]]}}, {"type": "Feature", "properties": {"id": 1391331261, "kind": "yes"}, "geometry": {"type": "Polygon", "coordinates": [[[73.5588893, 19.7002651], [73.5589076, 19.7002325], [73.5588221, 19.7001898], [73.5587915, 19.7001745], [73.5587731, 19.700207], [73.5588893, 19.7002651]]]}}, {"type": "Feature", "properties": {"id": 1391331262, "kind": "yes"}, "geometry": {"type": "Polygon", "coordinates": [[[73.5588803, 19.7002991], [73.5589539, 19.7003359], [73.5589775, 19.700294], [73.5589039, 19.7002572], [73.5588803, 19.7002991]]]}}, {"type": "Feature", "properties": {"id": 1391331263, "kind": "yes"}, "geometry": {"type": "Polygon", "coordinates": [[[73.5589131, 19.7004083], [73.5589539, 19.7003359], [73.5588803, 19.7002991], [73.5588395, 19.7003715], [73.5589131, 19.7004083]]]}}, {"type": "Feature", "properties": {"id": 1391331264, "kind": "yes"}, "geometry": {"type": "Polygon", "coordinates": [[[73.5593736, 19.7006444], [73.5594228, 19.700669], [73.559455, 19.7006119], [73.5594058, 19.7005873], [73.5593736, 19.7006444]]]}}, {"type": "Feature", "properties": {"id": 1391331265, "kind": "yes"}, "geometry": {"type": "Polygon", "coordinates": [[[73.5592626, 19.7005507], [73.5593513, 19.700595], [73.5593876, 19.7005306], [73.5592989, 19.7004863], [73.5592626, 19.7005507]]]}}, {"type": "Feature", "properties": {"id": 1391331266, "kind": "yes"}, "geometry": {"type": "Polygon", "coordinates": [[[73.5592807, 19.7004632], [73.5593954, 19.7005206], [73.5594517, 19.7004207], [73.559337, 19.7003634], [73.5592807, 19.7004632]]]}}, {"type": "Feature", "properties": {"id": 1391331267, "kind": "yes"}, "geometry": {"type": "Polygon", "coordinates": [[[73.5592067, 19.7004245], [73.5592706, 19.7004565], [73.5593218, 19.7003657], [73.5592578, 19.7003338], [73.5592067, 19.7004245]]]}}, {"type": "Feature", "properties": {"id": 1391331268, "kind": "yes"}, "geometry": {"type": "Polygon", "coordinates": [[[73.5590496, 19.7003262], [73.5591281, 19.7003654], [73.5591746, 19.7002829], [73.5590962, 19.7002437], [73.5590496, 19.7003262]]]}}, {"type": "Feature", "properties": {"id": 1391331269, "kind": "yes"}, "geometry": {"type": "Polygon", "coordinates": [[[73.5590011, 19.7004253], [73.5590709, 19.7004602], [73.5591088, 19.7003928], [73.5590391, 19.700358], [73.5590011, 19.7004253]]]}}, {"type": "Feature", "properties": {"id": 1391331270, "kind": "yes"}, "geometry": {"type": "Polygon", "coordinates": [[[73.5589986, 19.7006297], [73.5588901, 19.7005755], [73.5588703, 19.7006106], [73.5589788, 19.7006648], [73.5589986, 19.7006297]]]}}, {"type": "Feature", "properties": {"id": 1391331271, "kind": "yes"}, "geometry": {"type": "Polygon", "coordinates": [[[73.5588901, 19.7005755], [73.5589986, 19.7006297], [73.5590422, 19.7005523], [73.5589338, 19.7004981], [73.5588901, 19.7005755]]]}}, {"type": "Feature", "properties": {"id": 1391331272, "kind": "yes"}, "geometry": {"type": "Polygon", "coordinates": [[[73.5590135, 19.7006351], [73.5591049, 19.7006808], [73.559131, 19.7006343], [73.5590396, 19.7005887], [73.5590135, 19.7006351]]]}}, {"type": "Feature", "properties": {"id": 1391331273, "kind": "yes"}, "geometry": {"type": "Polygon", "coordinates": [[[73.5590727, 19.7007528], [73.5591005, 19.7007034], [73.5589974, 19.7006518], [73.5589695, 19.7007012], [73.5590727, 19.7007528]]]}}, {"type": "Feature", "properties": {"id": 1391331274, "kind": "yes"}, "geometry": {"type": "Polygon", "coordinates": [[[73.558951, 19.7007342], [73.5590541, 19.7007857], [73.5590727, 19.7007528], [73.5589695, 19.7007012], [73.558951, 19.7007342]]]}}, {"type": "Feature", "properties": {"id": 1391331275, "kind": "yes"}, "geometry": {"type": "Polygon", "coordinates": [[[73.5592092, 19.7008201], [73.5592843, 19.7008576], [73.5593259, 19.7007837], [73.5592508, 19.7007462], [73.5592092, 19.7008201]]]}}, {"type": "Feature", "properties": {"id": 1391331276, "kind": "yes"}, "geometry": {"type": "Polygon", "coordinates": [[[73.5591516, 19.7009053], [73.5592422, 19.7009505], [73.5592585, 19.7009215], [73.5591679, 19.7008763], [73.5591516, 19.7009053]]]}}, {"type": "Feature", "properties": {"id": 1391331279, "kind": "yes"}, "geometry": {"type": "Polygon", "coordinates": [[[73.5588876, 19.7009904], [73.5588591, 19.7010411], [73.5589799, 19.7011014], [73.5590085, 19.7010508], [73.5588876, 19.7009904]]]}}, {"type": "Feature", "properties": {"id": 1491832127, "kind": "yes"}, "geometry": {"type": "Polygon", "coordinates": [[[73.561317, 19.6937553], [73.5618401, 19.6937185], [73.5618208, 19.6934746], [73.5612977, 19.6935113], [73.561317, 19.6937553]]]}}, {"type": "Feature", "properties": {"id": 1493579474, "kind": "yes"}, "geometry": {"type": "Polygon", "coordinates": [[[73.5626065, 19.6959896], [73.5625821, 19.6958886], [73.5627589, 19.6958508], [73.5627833, 19.6959518], [73.5626065, 19.6959896]]]}}, {"type": "Feature", "properties": {"id": 1499004391, "kind": "yes"}, "geometry": {"type": "Polygon", "coordinates": [[[73.5645027, 19.6943155], [73.5645096, 19.6943892], [73.5646477, 19.6943778], [73.5646409, 19.6943041], [73.5645027, 19.6943155]]]}}, {"type": "Feature", "properties": {"id": 1499061243, "kind": "yes"}, "geometry": {"type": "Polygon", "coordinates": [[[73.5581392, 19.6977524], [73.5583109, 19.6977726], [73.5583304, 19.6976255], [73.5582426, 19.6976151], [73.5582345, 19.6976759], [73.5581507, 19.697666], [73.5581503, 19.6976687], [73.5581392, 19.6977524]]]}}, {"type": "Feature", "properties": {"id": 1499061244, "kind": "yes"}, "geometry": {"type": "Polygon", "coordinates": [[[73.5579716, 19.6974696], [73.5579568, 19.6975491], [73.5580965, 19.6975721], [73.5581113, 19.6974926], [73.5579716, 19.6974696]]]}}, {"type": "Feature", "properties": {"id": 1499061245, "kind": "yes"}, "geometry": {"type": "Polygon", "coordinates": [[[73.5575411, 19.6968282], [73.5575359, 19.6969345], [73.5576245, 19.6969383], [73.5576296, 19.696832], [73.5575411, 19.6968282]]]}}, {"type": "Feature", "properties": {"id": 1499061246, "kind": "yes"}, "geometry": {"type": "Polygon", "coordinates": [[[73.5582545, 19.6959645], [73.5582693, 19.696034], [73.5584208, 19.6960365], [73.5584396, 19.69601], [73.5584365, 19.6959844], [73.5584718, 19.6959746], [73.5584584, 19.6959216], [73.5582545, 19.6959645]]]}}, {"type": "Feature", "properties": {"id": 1499061247, "kind": "yes"}, "geometry": {"type": "Polygon", "coordinates": [[[73.558572, 19.6961698], [73.5586112, 19.6963344], [73.5586316, 19.6963301], [73.5586445, 19.6963842], [73.5587784, 19.6963558], [73.5587262, 19.6961372], [73.558572, 19.6961698]]]}}, {"type": "Feature", "properties": {"id": 1499061248, "kind": "yes"}, "geometry": {"type": "Polygon", "coordinates": [[[73.5611317, 19.6946107], [73.5611377, 19.6946863], [73.5612642, 19.6946774], [73.5612582, 19.6946018], [73.5611317, 19.6946107]]]}}, {"type": "Feature", "properties": {"id": 1499061293, "kind": "yes"}, "geometry": {"type": "Polygon", "coordinates": [[[73.5589023, 19.6975188], [73.5589214, 19.6977112], [73.5590073, 19.6977036], [73.5589881, 19.6975113], [73.5589023, 19.6975188]]]}}, {"type": "Feature", "properties": {"id": 1499061294, "kind": "yes"}, "geometry": {"type": "Polygon", "coordinates": [[[73.5584463, 19.6976009], [73.5584933, 19.6975277], [73.558685, 19.6975845], [73.5586582, 19.6976602], [73.5584463, 19.6976009]]]}}, {"type": "Feature", "properties": {"id": 1499061295, "kind": "yes"}, "geometry": {"type": "Polygon", "coordinates": [[[73.5596221, 19.69872], [73.5596441, 19.6988581], [73.5597652, 19.6988409], [73.5597431, 19.6987029], [73.5596221, 19.69872]]]}}, {"type": "Feature", "properties": {"id": 1499061296, "kind": "yes"}, "geometry": {"type": "Polygon", "coordinates": [[[73.5605639, 19.6983219], [73.5605788, 19.6985527], [73.5607331, 19.6985438], [73.5607181, 19.698313], [73.5605639, 19.6983219]]]}}, {"type": "Feature", "properties": {"id": 1499061297, "kind": "yes"}, "geometry": {"type": "Polygon", "coordinates": [[[73.5599765, 19.6962171], [73.5600141, 19.6965491], [73.5595581, 19.6966059], [73.5595527, 19.6965201], [73.5598451, 19.696284], [73.5599765, 19.6962171]]]}}, {"type": "Feature", "properties": {"id": 1499061298, "kind": "yes"}, "geometry": {"type": "Polygon", "coordinates": [[[73.5590015, 19.6958888], [73.5590163, 19.6959506], [73.5591712, 19.6959179], [73.5591564, 19.695856], [73.5590015, 19.6958888]]]}}, {"type": "Feature", "properties": {"id": 1499061299, "kind": "yes"}, "geometry": {"type": "Polygon", "coordinates": [[[73.5626319, 19.6954961], [73.562534, 19.6954979], [73.5625354, 19.6955611], [73.5626332, 19.6955592], [73.5626319, 19.6954961]]]}}, {"type": "Feature", "properties": {"id": 1499061300, "kind": "yes"}, "geometry": {"type": "Polygon", "coordinates": [[[73.5618742, 19.6951981], [73.5618774, 19.6953534], [73.5619458, 19.6953521], [73.5619426, 19.6951968], [73.5618742, 19.6951981]]]}}, {"type": "Feature", "properties": {"id": 1499061301, "kind": "yes"}, "geometry": {"type": "Polygon", "coordinates": [[[73.5619849, 19.6951954], [73.5619936, 19.6953557], [73.5620887, 19.6953512], [73.5620801, 19.6951908], [73.5619849, 19.6951954]]]}}, {"type": "Feature", "properties": {"id": 1499061302, "kind": "yes"}, "geometry": {"type": "Polygon", "coordinates": [[[73.5640427, 19.6950529], [73.5640473, 19.6951802], [73.5641265, 19.6951777], [73.5641219, 19.6950504], [73.5640427, 19.6950529]]]}}, {"type": "Feature", "properties": {"id": 1499061303, "kind": "yes"}, "geometry": {"type": "Polygon", "coordinates": [[[73.5638443, 19.6953963], [73.5638687, 19.6955397], [73.5640189, 19.695517], [73.5639945, 19.6953736], [73.5638443, 19.6953963]]]}}, {"type": "Feature", "properties": {"id": 1499061304, "kind": "yes"}, "geometry": {"type": "Polygon", "coordinates": [[[73.5637048, 19.6954961], [73.5634655, 19.6955469], [73.563487, 19.6956365], [73.5637262, 19.6955857], [73.5637048, 19.6954961]]]}}, {"type": "Feature", "properties": {"id": 1499061305, "kind": "yes"}, "geometry": {"type": "Polygon", "coordinates": [[[73.5625018, 19.6964885], [73.5625219, 19.6965706], [73.5626588, 19.6965409], [73.5626386, 19.6964588], [73.5625018, 19.6964885]]]}}, {"type": "Feature", "properties": {"id": 1499061306, "kind": "yes"}, "geometry": {"type": "Polygon", "coordinates": [[[73.5628223, 19.6964342], [73.5628149, 19.6965672], [73.5629168, 19.6965723], [73.5629243, 19.6964393], [73.5628223, 19.6964342]]]}}, {"type": "Feature", "properties": {"id": 1499061307, "kind": "yes"}, "geometry": {"type": "Polygon", "coordinates": [[[73.5653628, 19.6977965], [73.5656575, 19.6981264], [73.5657333, 19.6980665], [73.5654385, 19.6977365], [73.5653628, 19.6977965]]]}}, {"type": "Feature", "properties": {"id": 1499061310, "kind": "yes"}, "geometry": {"type": "Polygon", "coordinates": [[[73.5667612, 19.6985592], [73.5666043, 19.698582], [73.5666203, 19.6986804], [73.5667773, 19.6986577], [73.5667612, 19.6985592]]]}}, {"type": "Feature", "properties": {"id": 1499061311, "kind": "yes"}, "geometry": {"type": "Polygon", "coordinates": [[[73.5668094, 19.6985289], [73.5668242, 19.698611], [73.5669775, 19.6985866], [73.5669627, 19.6985045], [73.5668094, 19.6985289]]]}}, {"type": "Feature", "properties": {"id": 1499061317, "kind": "yes"}, "geometry": {"type": "Polygon", "coordinates": [[[73.5668269, 19.6987865], [73.5668403, 19.6988825], [73.5671513, 19.6988439], [73.5671379, 19.698748], [73.5668269, 19.6987865]]]}}, {"type": "Feature", "properties": {"id": 1499061324, "kind": "yes"}, "geometry": {"type": "Polygon", "coordinates": [[[73.5565406, 19.6986034], [73.5565486, 19.698688], [73.5566237, 19.6986817], [73.5566157, 19.6985971], [73.5565406, 19.6986034]]]}}, {"type": "Feature", "properties": {"id": 1499061325, "kind": "yes"}, "geometry": {"type": "Polygon", "coordinates": [[[73.5575505, 19.6977878], [73.5575368, 19.6978627], [73.5576615, 19.6978829], [73.5576752, 19.697808], [73.5575505, 19.6977878]]]}}, {"type": "Feature", "properties": {"id": 1499061326, "kind": "yes"}, "geometry": {"type": "Polygon", "coordinates": [[[73.557318, 19.697603], [73.5573139, 19.6976647], [73.557504, 19.6976758], [73.5575067, 19.6976339], [73.5574815, 19.6976324], [73.5574828, 19.6976126], [73.557318, 19.697603]]]}}, {"type": "Feature", "properties": {"id": 1499061327, "kind": "yes"}, "geometry": {"type": "Polygon", "coordinates": [[[73.5553175, 19.6984885], [73.5551103, 19.6985703], [73.5551452, 19.6986486], [73.5553524, 19.6985668], [73.5553175, 19.6984885]]]}}, {"type": "Feature", "properties": {"id": 1499061328, "kind": "yes"}, "geometry": {"type": "Polygon", "coordinates": [[[73.555571, 19.6983572], [73.5554904, 19.6984092], [73.55554, 19.6984774], [73.5556206, 19.6984254], [73.555571, 19.6983572]]]}}, {"type": "Feature", "properties": {"id": 1499061329, "kind": "yes"}, "geometry": {"type": "Polygon", "coordinates": [[[73.555465, 19.6981173], [73.5555132, 19.6982116], [73.5555829, 19.69818], [73.5555348, 19.6980857], [73.555465, 19.6981173]]]}}, {"type": "Feature", "properties": {"id": 1499061330, "kind": "yes"}, "geometry": {"type": "Polygon", "coordinates": [[[73.5555509, 19.6980807], [73.5555969, 19.6981737], [73.5556746, 19.6981396], [73.5556287, 19.6980466], [73.5555509, 19.6980807]]]}}, {"type": "Feature", "properties": {"id": 1499061331, "kind": "yes"}, "geometry": {"type": "Polygon", "coordinates": [[[73.5614122, 19.6967144], [73.5611004, 19.6966947], [73.561093, 19.696798], [73.5614048, 19.6968177], [73.5614122, 19.6967144]]]}}, {"type": "Feature", "properties": {"id": 1499061332, "kind": "yes"}, "geometry": {"type": "Polygon", "coordinates": [[[73.5620923, 19.696233], [73.5620975, 19.6963142], [73.562289, 19.6963034], [73.5622839, 19.6962222], [73.5620923, 19.696233]]]}}, {"type": "Feature", "properties": {"id": 1499061333, "kind": "yes"}, "geometry": {"type": "Polygon", "coordinates": [[[73.5617602, 19.6961766], [73.5617935, 19.6963571], [73.5618552, 19.696347], [73.5618219, 19.6961665], [73.5617602, 19.6961766]]]}}, {"type": "Feature", "properties": {"id": 1499061334, "kind": "yes"}, "geometry": {"type": "Polygon", "coordinates": [[[73.560175, 19.6974494], [73.5600421, 19.6974977], [73.5600716, 19.6975697], [73.5602045, 19.6975214], [73.560175, 19.6974494]]]}}, {"type": "Feature", "properties": {"id": 1499061335, "kind": "yes"}, "geometry": {"type": "Polygon", "coordinates": [[[73.5602738, 19.6973153], [73.5603188, 19.6974636], [73.5604111, 19.6974387], [73.560366, 19.6972905], [73.5602738, 19.6973153]]]}}, {"type": "Feature", "properties": {"id": 1499061336, "kind": "yes"}, "geometry": {"type": "Polygon", "coordinates": [[[73.5593632, 19.6969817], [73.5593713, 19.6970762], [73.5591569, 19.6970926], [73.5591814, 19.6973772], [73.5592085, 19.6973751], [73.5592143, 19.6974428], [73.5591084, 19.6974509], [73.5591052, 19.6974148], [73.55908, 19.6974167], [73.5590446, 19.697006], [73.5593632, 19.6969817]]]}}, {"type": "Feature", "properties": {"id": 1499061337, "kind": "yes"}, "geometry": {"type": "Polygon", "coordinates": [[[73.5600302, 19.6986855], [73.5600443, 19.6988036], [73.5602106, 19.6987859], [73.5601965, 19.6986678], [73.5600302, 19.6986855]]]}}, {"type": "Feature", "properties": {"id": 1499061338, "kind": "yes"}, "geometry": {"type": "Polygon", "coordinates": [[[73.5594307, 19.6996236], [73.5595243, 19.6996703], [73.5595484, 19.6996273], [73.5594548, 19.6995807], [73.5594307, 19.6996236]]]}}, {"type": "Feature", "properties": {"id": 1499061340, "kind": "yes"}, "geometry": {"type": "Polygon", "coordinates": [[[73.5610652, 19.6970881], [73.5610796, 19.6972347], [73.5614651, 19.697201], [73.5614506, 19.6970544], [73.5610652, 19.6970881]]]}}, {"type": "Feature", "properties": {"id": 1499061345, "kind": "yes"}, "geometry": {"type": "Polygon", "coordinates": [[[73.5546523, 19.698885], [73.5548315, 19.6992224], [73.5549871, 19.6991491], [73.5548079, 19.6988118], [73.5546523, 19.698885]]]}}, {"type": "Feature", "properties": {"id": 1499061346, "kind": "yes"}, "geometry": {"type": "Polygon", "coordinates": [[[73.5556313, 19.6984506], [73.5554512, 19.6985501], [73.5554968, 19.6986233], [73.5556769, 19.6985239], [73.5556313, 19.6984506]]]}}, {"type": "Feature", "properties": {"id": 1499061347, "kind": "yes"}, "geometry": {"type": "Polygon", "coordinates": [[[73.5563797, 19.6981047], [73.5563888, 19.6985596], [73.5565309, 19.6985571], [73.5565218, 19.6981022], [73.5563797, 19.6981047]]]}}, {"type": "Feature", "properties": {"id": 1499061348, "kind": "yes"}, "geometry": {"type": "Polygon", "coordinates": [[[73.5584656, 19.6989263], [73.5584198, 19.6991328], [73.5586136, 19.6991709], [73.5586594, 19.6989645], [73.5584656, 19.6989263]]]}}, {"type": "Feature", "properties": {"id": 1499061349, "kind": "yes"}, "geometry": {"type": "Polygon", "coordinates": [[[73.5572809, 19.6987714], [73.5572809, 19.6989153], [73.5575652, 19.6989153], [73.5575652, 19.6987714], [73.5572809, 19.6987714]]]}}]}