{"type": "FeatureCollection", "features": [{"type": "Feature", "properties": {"id": 1477353074, "amenity": "school", "name": "M G HIGH SCHOOL IGATPURI"}, "geometry": {"type": "Polygon", "coordinates": [[[73.5594414, 19.6965246], [73.5595407, 19.6970473], [73.5597606, 19.6971357], [73.5598357, 19.6971205], [73.5598223, 19.6970423], [73.5600879, 19.6969791], [73.5601281, 19.6969741], [73.5600879, 19.6968352], [73.5601334, 19.6968301], [73.5600771, 19.6963832], [73.5600342, 19.6961433], [73.5596104, 19.6963907], [73.5594414, 19.6965246]]]}}, {"type": "Feature", "properties": {"id": 1491823737, "amenity": "school", "name": "JANATA VIDYALAYA & JUNIOR COLLEGE,IGATPURI"}, "geometry": {"type": "Polygon", "coordinates": [[[73.5603941, 19.6977254], [73.5608136, 19.6977436], [73.5607922, 19.69818], [73.5603727, 19.6981618], [73.5603941, 19.6977254]]]}}]}