{"type": "FeatureCollection", "features": [{"type": "Feature", "properties": {"id": 400586798, "landuse": "residential", "natural": null}, "geometry": {"type": "Polygon", "coordinates": [[[73.5512255, 19.6958636], [73.5513021, 19.6972403], [73.5520906, 19.6969744], [73.5526792, 19.6953398], [73.5531205, 19.6954119], [73.5530205, 19.6968026], [73.554068, 19.6968137], [73.5574174, 19.6953102], [73.5579383, 19.6949085], [73.558056, 19.6939998], [73.5591064, 19.6937311], [73.5592359, 19.6931881], [73.5626022, 19.6928778], [73.5637086, 19.6934873], [73.5682624, 19.6932538], [73.5693693, 19.6930971], [73.5693277, 19.6925721], [73.5680671, 19.6925912], [73.5683285, 19.6916825], [73.5682873, 19.6913666], [73.5678283, 19.691217], [73.567687, 19.690735], [73.5692642, 19.6905854], [73.5694466, 19.6896323], [73.5683873, 19.6891004], [73.567587, 19.6903083], [73.5671809, 19.69053], [73.5665571, 19.6903748], [73.5669043, 19.6883856], [73.5637499, 19.6882748], [73.5628201, 19.6915512], [73.5618549, 19.6916288], [73.5615371, 19.6898225], [73.5593479, 19.6886367], [73.5583239, 19.6900884], [73.5553578, 19.6910193], [73.5551224, 19.6932246], [73.5546398, 19.6932467], [73.5530156, 19.6906425], [73.5518032, 19.6906647], [73.5492309, 19.6913964], [73.5490372, 19.6914515], [73.5442357, 19.6926999], [73.5446064, 19.6930817], [73.545926, 19.6933565], [73.547383, 19.6934903], [73.5492933, 19.6934676], [73.5494005, 19.6942944], [73.5513746, 19.6945974], [73.5512255, 19.6958636]]]}}, {"type": "Feature", "properties": {"id": 828242725, "landuse": "railway", "natural": null}, "geometry": {"type": "Polygon", "coordinates": [[[73.5703754, 19.6930112], [73.568176, 19.6932789], [73.5661858, 19.6933849], [73.5658479, 19.6934455], [73.5653329, 19.6935415], [73.5635358, 19.6925718], [73.5590619, 19.6930364], [73.5590512, 19.6935668], [73.5589868, 19.6938395], [73.5589224, 19.693991], [73.5581714, 19.6940971], [73.5579944, 19.6949658], [73.5574472, 19.6953244], [73.556664, 19.6956628], [73.5567927, 19.6959102], [73.5572702, 19.6957991], [73.5578012, 19.6955365], [73.5581821, 19.6954052], [73.5586649, 19.6953143], [73.55955, 19.6952385], [73.5647589, 19.6948496], [73.5651398, 19.6947789], [73.565585, 19.6946324], [73.5659337, 19.6945112], [73.5661375, 19.6944001], [73.5668188, 19.6938748], [73.5672158, 19.6937738], [73.5690451, 19.6935213], [73.5693294, 19.6934354], [73.5704291, 19.6932637], [73.5703754, 19.6930112]]]}}, {"type": "Feature", "properties": {"id": 866592995, "landuse": "residential", "natural": null}, "geometry": {"type": "Polygon", "coordinates": [[[73.556856, 19.6996502], [73.5565515, 19.6998598], [73.5566964, 19.700303], [73.556915, 19.700226], [73.5574154, 19.7019648], [73.5582375, 19.7017224], [73.5582228, 19.7016555], [73.558196, 19.7015229], [73.5581826, 19.7013588], [73.5582147, 19.7011745], [73.5581973, 19.7008058], [73.5581826, 19.7006745], [73.5581772, 19.7005469], [73.5581946, 19.7004245], [73.5582764, 19.7002048], [73.5583207, 19.7000861], [73.558267, 19.6998487], [73.5582697, 19.6997616], [73.5585849, 19.6992629], [73.5579289, 19.6990896], [73.5578591, 19.6995492], [73.5576499, 19.6993118], [73.5568935, 19.6993674], [73.556856, 19.6996502]]]}}, {"type": "Feature", "properties": {"id": 1499061341, "landuse": "farmland", "natural": null}, "geometry": {"type": "Polygon", "coordinates": [[[73.5532415, 19.6977032], [73.5536036, 19.6986804], [73.5536599, 19.6992183], [73.5542983, 19.6989961], [73.5545692, 19.6995491], [73.5539764, 19.6997385], [73.5538584, 19.699789], [73.5533649, 19.7005365], [73.5531583, 19.7010264], [73.5521713, 19.7016956], [73.5515892, 19.7021779], [73.5510823, 19.7026678], [73.5508785, 19.7022284], [73.5504439, 19.7022132], [73.5499638, 19.7018748], [73.5498458, 19.7012688], [73.5501248, 19.7009708], [73.5500389, 19.7006476], [73.5495561, 19.70039], [73.5495454, 19.6998951], [73.5493576, 19.6996426], [73.5494167, 19.6993749], [73.549186, 19.6992082], [73.5493523, 19.6987688], [73.5496527, 19.6988244], [73.549878, 19.6991527], [73.5504895, 19.6991375], [73.5508382, 19.6992991], [73.5510904, 19.6999506], [73.5517663, 19.6997638], [73.5517448, 19.6990668], [73.5521525, 19.698986], [73.5521606, 19.6982789], [73.552241, 19.6982284], [73.5522813, 19.6980971], [73.5532415, 19.6977032]]]}}]}