{"type": "FeatureCollection", "features": [{"type": "Feature", "properties": {"id": 244760533}, "geometry": {"type": "LineString", "coordinates": [[73.5589882, 19.6950195], [73.5591161, 19.6949856], [73.559288, 19.694952], [73.5595872, 19.6949078], [73.5598898, 19.6948761], [73.5628906, 19.6946184], [73.5641456, 19.6945106], [73.564355, 19.6944853], [73.5646068, 19.6944534], [73.5649256, 19.6943872], [73.5652966, 19.6942959], [73.5655601, 19.6942151], [73.5659677, 19.6940737], [73.566414, 19.6938975], [73.5666564, 19.6938141], [73.5669428, 19.6937237], [73.567425, 19.6936118]]}}, {"type": "Feature", "properties": {"id": 286899595}, "geometry": {"type": "LineString", "coordinates": [[73.6132565, 19.700513], [73.612974, 19.7003441], [73.6112592, 19.6994268], [73.6090377, 19.6982593], [73.6060333, 19.6966615], [73.6032414, 19.6951738], [73.6024938, 19.6948269], [73.6016506, 19.6945434], [73.6011652, 19.6944466], [73.6005487, 19.6943466], [73.5997339, 19.6943099], [73.5990323, 19.6942532], [73.5981962, 19.6941364], [73.5975372, 19.6939696], [73.5970872, 19.6938028], [73.59612, 19.6934092], [73.5939056, 19.6924285], [73.5926443, 19.6918848], [73.5918825, 19.6916429], [73.5909012, 19.6913744], [73.590156, 19.6912594], [73.589321, 19.6911709], [73.5884087, 19.6911424], [73.5876664, 19.6911642], [73.5857284, 19.6913711], [73.5852643, 19.6914411], [73.5845133, 19.6915254], [73.5772058, 19.6923706], [73.5761281, 19.6925012], [73.5749873, 19.6926303], [73.5739074, 19.6927469], [73.5689034, 19.6933254]]}}, {"type": "Feature", "properties": {"id": 286899596}, "geometry": {"type": "LineString", "coordinates": [[73.567677, 19.6935586], [73.5682754, 19.6934607], [73.568839, 19.6933744], [73.5698757, 19.693251], [73.5739195, 19.6927893], [73.5757082, 19.6925825], [73.5844075, 19.6915831], [73.5852403, 19.6914899], [73.5860911, 19.6913338], [73.5872299, 19.6912287], [73.5883505, 19.6911881], [73.5892844, 19.6912208], [73.5901676, 19.6913132], [73.5905631, 19.6913746], [73.5908926, 19.6914346], [73.591351, 19.6915381], [73.5918485, 19.6916712], [73.5925425, 19.6919036], [73.5940378, 19.6925264], [73.5950906, 19.6929931], [73.5961386, 19.6934579], [73.5969032, 19.6937844], [73.5974, 19.6939617], [73.5978734, 19.6940975], [73.598188, 19.6941656], [73.5985277, 19.6942289], [73.5988955, 19.6942869], [73.5992624, 19.6943223], [73.5998902, 19.6943484], [73.6005888, 19.6944031], [73.6010104, 19.6944618], [73.6014063, 19.6945423], [73.6017578, 19.6946323], [73.6020781, 19.6947339], [73.6024147, 19.6948548], [73.6027006, 19.694971], [73.6035274, 19.6953663], [73.604759, 19.6960245], [73.6073946, 19.6974311], [73.6096923, 19.6986651], [73.6132313, 19.7005526]]}}, {"type": "Feature", "properties": {"id": 386065444}, "geometry": {"type": "LineString", "coordinates": [[73.5689034, 19.6933254], [73.5683282, 19.6934059], [73.5676914, 19.6935137]]}}, {"type": "Feature", "properties": {"id": 400497643}, "geometry": {"type": "LineString", "coordinates": [[73.5596702, 19.6946827], [73.5601133, 19.6945983], [73.5604795, 19.6945358], [73.5607652, 19.6944987], [73.5609986, 19.6944683], [73.5613257, 19.6944404], [73.5628638, 19.6943125], [73.5645496, 19.6941724], [73.5647935, 19.6941518], [73.5650237, 19.6941166], [73.5652617, 19.6940703], [73.5659156, 19.6938836], [73.5664689, 19.693742]]}}, {"type": "Feature", "properties": {"id": 400497645}, "geometry": {"type": "LineString", "coordinates": [[73.5581379, 19.6952975], [73.5584816, 19.6952113], [73.5587071, 19.6951519], [73.5589864, 19.6950982], [73.5592874, 19.6950593], [73.5629077, 19.6947501], [73.5639807, 19.6946585], [73.5642295, 19.6946344], [73.5644774, 19.6946011], [73.5647167, 19.6945555], [73.5650241, 19.6944796], [73.5653829, 19.6943696], [73.5657627, 19.6942425], [73.5659004, 19.6941849], [73.5662092, 19.6940401]]}}, {"type": "Feature", "properties": {"id": 400497646}, "geometry": {"type": "LineString", "coordinates": [[73.5592436, 19.6947464], [73.5596352, 19.694606], [73.5598526, 19.6945347], [73.5602864, 19.6944069], [73.5604477, 19.6943708], [73.5607024, 19.6943264], [73.5609729, 19.6942977], [73.5646893, 19.69399], [73.5648993, 19.6939612], [73.5651066, 19.6939271], [73.5655253, 19.6938328], [73.5658146, 19.6937791], [73.5663181, 19.6937019], [73.5665254, 19.69366], [73.566951, 19.6935408], [73.5671138, 19.693508], [73.5674561, 19.6934646]]}}, {"type": "Feature", "properties": {"id": 400497647}, "geometry": {"type": "LineString", "coordinates": [[73.5592631, 19.6948113], [73.5598075, 19.6945923], [73.5601106, 19.6945024], [73.5604736, 19.6944063], [73.5607017, 19.6943641], [73.5611179, 19.6943244], [73.5646226, 19.6940369], [73.5648702, 19.6940094], [73.565097, 19.6939727], [73.565581, 19.6938666], [73.5658328, 19.6938208], [73.5660929, 19.6937802], [73.566392, 19.693733], [73.5666201, 19.6936846], [73.5674561, 19.6934646], [73.5677788, 19.6933991], [73.5681724, 19.6933349], [73.5685995, 19.6932773], [73.5689991, 19.6932662]]}}, {"type": "Feature", "properties": {"id": 400497648}, "geometry": {"type": "LineString", "coordinates": [[73.5551833, 19.6965658], [73.5556106, 19.6963151]]}}, {"type": "Feature", "properties": {"id": 400497656}, "geometry": {"type": "LineString", "coordinates": [[73.557676, 19.6953654], [73.5586344, 19.6949457], [73.5588887, 19.6948681], [73.5592436, 19.6947464], [73.5598075, 19.6945923]]}}, {"type": "Feature", "properties": {"id": 400497658}, "geometry": {"type": "LineString", "coordinates": [[73.5589882, 19.6950195], [73.5595821, 19.6949427], [73.562898, 19.6946582], [73.563884, 19.6945736], [73.5641634, 19.6945495], [73.5643778, 19.6945273], [73.5646256, 19.6944921], [73.5649404, 19.6944292], [73.5657489, 19.6941958], [73.5662092, 19.6940401]]}}, {"type": "Feature", "properties": {"id": 400585286}, "geometry": {"type": "LineString", "coordinates": [[73.556901, 19.6957543], [73.5572403, 19.6956544], [73.5578927, 19.6954294], [73.5583522, 19.6952977], [73.5587187, 19.6951907], [73.5589969, 19.6951357], [73.559296, 19.695099], [73.5642451, 19.6946813], [73.5646207, 19.694642], [73.5649142, 19.6945909], [73.5652369, 19.6945032], [73.5655499, 19.6943853], [73.5658628, 19.6942635], [73.5661494, 19.6941391], [73.5666268, 19.6938838]]}}, {"type": "Feature", "properties": {"id": 400585288}, "geometry": {"type": "LineString", "coordinates": [[73.5616073, 19.6939847], [73.5618006, 19.6939687], [73.5620555, 19.6939647], [73.5624208, 19.6939427], [73.5648402, 19.6937447], [73.5650165, 19.6937147], [73.5652969, 19.6936454], [73.5653753, 19.6936276], [73.5657935, 19.6935328], [73.5661384, 19.6934713], [73.5664556, 19.6934267], [73.5673959, 19.6933665], [73.5677075, 19.6933586]]}}, {"type": "Feature", "properties": {"id": 400585290}, "geometry": {"type": "LineString", "coordinates": [[73.5668112, 19.6938243], [73.5671662, 19.6937174], [73.5674601, 19.6936495], [73.567762, 19.6935879], [73.5681062, 19.6935321], [73.5685322, 19.6934661], [73.573376, 19.6928995], [73.573669, 19.6928653], [73.5741649, 19.6928752], [73.5743417, 19.6928681], [73.5745365, 19.6928555], [73.5807083, 19.6921525], [73.5808835, 19.6921257], [73.5815293, 19.6919564]]}}, {"type": "Feature", "properties": {"id": 400585291}, "geometry": {"type": "LineString", "coordinates": [[73.5433141, 19.6986837], [73.5460995, 19.6985139], [73.5487527, 19.6983096], [73.5503035, 19.6981565], [73.5514058, 19.6980811], [73.5521874, 19.6979678], [73.5524587, 19.6978922], [73.5527585, 19.6978007], [73.5530258, 19.6976947], [73.5532896, 19.6975718], [73.5538606, 19.6972385], [73.5544056, 19.6969574], [73.5551833, 19.6965658], [73.5568483, 19.6957796]]}}, {"type": "Feature", "properties": {"id": 400585292}, "geometry": {"type": "LineString", "coordinates": [[73.5586344, 19.6949457], [73.5592168, 19.6946872], [73.5597486, 19.6944913], [73.5602659, 19.6943616], [73.5605079, 19.6943116], [73.5607145, 19.694282], [73.56098, 19.694256], [73.5647191, 19.6939426], [73.5649158, 19.6939185], [73.5651223, 19.6938833], [73.5655846, 19.6937778], [73.5658246, 19.6937315], [73.5662377, 19.6936629], [73.5664659, 19.6936129], [73.5670882, 19.6934578], [73.5673775, 19.6934015], [73.5677075, 19.6933586], [73.5681724, 19.6933349]]}}, {"type": "Feature", "properties": {"id": 400585293}, "geometry": {"type": "LineString", "coordinates": [[73.5676914, 19.6935137], [73.5672956, 19.6936], [73.5664152, 19.693811], [73.5659021, 19.6939528], [73.5652683, 19.6941063], [73.5650413, 19.6941495], [73.5648148, 19.6941817], [73.5645513, 19.6942087], [73.5628687, 19.6943622], [73.5623322, 19.6944112], [73.5608214, 19.6945366], [73.5605063, 19.6945774], [73.5601222, 19.6946535], [73.5595366, 19.6947851], [73.5587249, 19.6950439], [73.5576283, 19.6954258], [73.5571734, 19.695596], [73.5568886, 19.6957062]]}}, {"type": "Feature", "properties": {"id": 400585296}, "geometry": {"type": "LineString", "coordinates": [[73.5596702, 19.6946827], [73.5592631, 19.6948113], [73.5589472, 19.6949115], [73.5587073, 19.6949969], [73.557676, 19.6953654], [73.5575647, 19.695402], [73.5571583, 19.6955509], [73.5567866, 19.6956952], [73.5563976, 19.6958797], [73.5550863, 19.6965015], [73.5547282, 19.69666], [73.5543221, 19.6968123], [73.5539078, 19.696948], [73.5534029, 19.697112], [73.5529457, 19.6972431], [73.5521895, 19.6974193], [73.5513622, 19.6975772], [73.5503489, 19.6977574], [73.5491761, 19.6979208], [73.5469228, 19.6980542], [73.5449742, 19.6981977], [73.5435096, 19.6982921], [73.5426481, 19.6982838], [73.542122, 19.6982106], [73.5416034, 19.6981092], [73.541165, 19.6979771], [73.5400652, 19.6977295], [73.5395587, 19.6976671], [73.5387394, 19.6976308], [73.5375948, 19.6975825], [73.5368311, 19.6976308], [73.5366257, 19.6976792], [73.5360994, 19.6978141], [73.5356502, 19.6979531], [73.5352779, 19.6981324], [73.5346383, 19.6984889], [73.5341633, 19.6987447], [73.5338724, 19.6988877], [73.5335194, 19.6990157], [73.5327749, 19.6992313], [73.5314635, 19.6995837], [73.5290789, 19.7001617], [73.5286241, 19.7003225], [73.5282166, 19.7004892], [73.5278624, 19.7006871], [73.5274025, 19.7009645], [73.5267968, 19.7012953]]}}, {"type": "Feature", "properties": {"id": 400585299}, "geometry": {"type": "LineString", "coordinates": [[73.5568886, 19.6957062], [73.5559004, 19.696177], [73.5556106, 19.6963151], [73.555115, 19.6965416], [73.5547432, 19.6966975], [73.5543291, 19.6968521], [73.5539198, 19.6969999], [73.553418, 19.6971629], [73.5529513, 19.6973011], [73.552208, 19.6974692], [73.5513701, 19.6976261], [73.5500858, 19.6978279], [73.5491805, 19.6979647], [73.5487536, 19.6979914], [73.5471309, 19.6980881], [73.5455206, 19.6982032], [73.5434544, 19.6983487], [73.5426055, 19.6983191], [73.5421145, 19.6982531], [73.541631, 19.6981611], [73.541155, 19.698029], [73.5400527, 19.6977719], [73.5395523, 19.6977195], [73.5387522, 19.6976792], [73.5375906, 19.6976329], [73.5369231, 19.6976792], [73.5366685, 19.6977175], [73.5361572, 19.6978464], [73.5357614, 19.6979712], [73.535524, 19.698074], [73.5346682, 19.6985271], [73.5341911, 19.698785], [73.5339152, 19.69893], [73.5335807, 19.6990485], [73.5327926, 19.6992721], [73.530708, 19.6998218], [73.5290893, 19.7002293], [73.5286361, 19.7003805], [73.5282401, 19.7005668], [73.5279001, 19.7007787], [73.5274126, 19.7011299], [73.5269928, 19.7014156], [73.5268052, 19.701527], [73.5265459, 19.7016408], [73.5263185, 19.7017359], [73.5260508, 19.7018183], [73.5257181, 19.7018753], [73.5251021, 19.7019253], [73.5246624, 19.7019367], [73.5238228, 19.7019439], [73.5232816, 19.701912]]}}, {"type": "Feature", "properties": {"id": 400585300}, "geometry": {"type": "LineString", "coordinates": [[73.5613142, 19.6940387], [73.5616073, 19.6939847], [73.5619323, 19.6939167], [73.5621256, 19.6938967], [73.5643814, 19.6936987], [73.5646864, 19.6936862], [73.5650005, 19.6936748], [73.5653753, 19.6936276]]}}, {"type": "Feature", "properties": {"id": 400585301}, "geometry": {"type": "LineString", "coordinates": [[73.5597486, 19.6944913], [73.5601309, 19.6943586], [73.5606578, 19.6942427], [73.5608681, 19.6941907], [73.5610338, 19.6941427], [73.5613142, 19.6940387], [73.5620109, 19.6938087], [73.5621978, 19.6937587], [73.5624203, 19.6937227], [73.5635979, 19.6936015], [73.564019, 19.6935872], [73.5644514, 19.6936622], [73.5646864, 19.6936862]]}}, {"type": "Feature", "properties": {"id": 400585304}, "geometry": {"type": "LineString", "coordinates": [[73.5669703, 19.6936345], [73.5673963, 19.6935231], [73.5678761, 19.6934266], [73.568399, 19.6933431], [73.5689991, 19.6932662], [73.5696895, 19.6931864], [73.5718917, 19.6929302], [73.5722029, 19.6928883]]}}, {"type": "Feature", "properties": {"id": 661779004}, "geometry": {"type": "LineString", "coordinates": [[73.5698757, 19.693251], [73.5689034, 19.6933254]]}}, {"type": "Feature", "properties": {"id": 816292499}, "geometry": {"type": "LineString", "coordinates": [[73.5559004, 19.696177], [73.5563976, 19.6958797]]}}, {"type": "Feature", "properties": {"id": 1316837799}, "geometry": {"type": "LineString", "coordinates": [[73.567425, 19.6936118], [73.567677, 19.6935586]]}}, {"type": "Feature", "properties": {"id": 1316837800}, "geometry": {"type": "LineString", "coordinates": [[73.5662092, 19.6940401], [73.5663191, 19.6939885], [73.5664846, 19.6939217], [73.5666268, 19.6938838], [73.5668112, 19.6938243], [73.567425, 19.6936118]]}}, {"type": "Feature", "properties": {"id": 1316837801}, "geometry": {"type": "LineString", "coordinates": [[73.5568483, 19.6957796], [73.556901, 19.6957543], [73.5573432, 19.6955846], [73.5575809, 19.695494], [73.5581379, 19.6952975], [73.5587357, 19.6950865], [73.5589882, 19.6950195]]}}, {"type": "Feature", "properties": {"id": 1316858921}, "geometry": {"type": "LineString", "coordinates": [[73.5664689, 19.693742], [73.5658394, 19.6938595], [73.5656094, 19.6939033], [73.5651013, 19.6940199], [73.5648692, 19.6940558], [73.5646195, 19.6940869], [73.5628587, 19.6942249], [73.5611241, 19.6943549], [73.5607053, 19.6944082], [73.5604848, 19.6944493], [73.5601227, 19.6945453], [73.5596702, 19.6946827]]}}, {"type": "Feature", "properties": {"id": 1316858922}, "geometry": {"type": "LineString", "coordinates": [[73.5676914, 19.6935137], [73.5669703, 19.6936345], [73.5664689, 19.693742]]}}]}