{"type": "FeatureCollection", "features": [{"type": "Feature", "properties": {"id": 258611648, "highway": "tertiary"}, "geometry": {"type": "LineString", "coordinates": [[73.5439206, 19.6925325], [73.5439631, 19.6926568], [73.5440046, 19.6927718], [73.5440205, 19.6928101], [73.5443349, 19.6930706], [73.5445602, 19.6932323], [73.5448499, 19.6933636], [73.5458155, 19.6935252], [73.5462017, 19.693606], [73.5466523, 19.6936868], [73.5470493, 19.6936969], [73.5474034, 19.6937373], [73.5478647, 19.6937474], [73.5480331, 19.693723], [73.548253, 19.693723], [73.5487841, 19.6936826], [73.5491489, 19.6936725], [73.5493556, 19.6936519], [73.5494082, 19.6936466], [73.5495029, 19.6936372], [73.5498999, 19.693617], [73.5502539, 19.6935917], [73.5506938, 19.6936624], [73.5527055, 19.6940362], [73.55601, 19.6946069], [73.5561172, 19.6946726], [73.5562031, 19.6947988]]}}, {"type": "Feature", "properties": {"id": 265351976, "highway": "service"}, "geometry": {"type": "LineString", "coordinates": [[73.5576936, 19.6983951], [73.557681, 19.6985324], [73.5576863, 19.6988052], [73.5576461, 19.6989011], [73.5576354, 19.6990653], [73.5575974, 19.6990681], [73.5571204, 19.6991031], [73.5570238, 19.6991309], [73.5569522, 19.6991814], [73.556938, 19.6991915], [73.5568056, 19.6993015], [73.5567556, 19.699343], [73.5567154, 19.6993841], [73.5565679, 19.699535], [73.5565062, 19.6996991], [73.5565303, 19.6999516], [73.556584, 19.7000299], [73.5566215, 19.7001486], [73.5566188, 19.7003178], [73.5565679, 19.7004238], [73.556474, 19.7006536], [73.5562889, 19.7009264], [73.5561307, 19.7010955], [73.5558705, 19.7012976], [73.5556103, 19.7014971], [73.5554306, 19.7016233], [73.555098, 19.7018607]]}}, {"type": "Feature", "properties": {"id": 429036862, "highway": "path"}, "geometry": {"type": "LineString", "coordinates": [[73.5568018, 19.6995796], [73.5567873, 19.6995117], [73.5567726, 19.6994689]]}}, {"type": "Feature", "properties": {"id": 429036871, "highway": "path"}, "geometry": {"type": "LineString", "coordinates": [[73.556553, 19.6996204], [73.5566822, 19.6994788]]}}, {"type": "Feature", "properties": {"id": 502811440, "highway": "tertiary"}, "geometry": {"type": "LineString", "coordinates": [[73.5611775, 19.6951814], [73.5631682, 19.6950404], [73.5636764, 19.6950044], [73.5649773, 19.6948908], [73.5655352, 19.6947292], [73.565873, 19.6946149], [73.5660126, 19.6945676], [73.5663302, 19.6943374], [73.5665491, 19.6941787], [73.5668709, 19.693916], [73.5671552, 19.6938251], [73.5674878, 19.6937645], [73.5685822, 19.6937595], [73.5694168, 19.693763]]}}, {"type": "Feature", "properties": {"id": 561271188, "highway": "residential"}, "geometry": {"type": "LineString", "coordinates": [[73.5631682, 19.6950404], [73.5631911, 19.6952959], [73.5632134, 19.6957354], [73.5630918, 19.696044], [73.5630687, 19.69614], [73.5630532, 19.69622], [73.5630532, 19.6962477], [73.5630532, 19.6962959], [73.5630753, 19.6967294], [73.563079, 19.6967651], [73.5630877, 19.6967918], [73.5631412, 19.6969344], [73.56315, 19.6969673], [73.5631515, 19.6969985], [73.5631519, 19.6972651], [73.5631554, 19.6977158], [73.5631434, 19.69782], [73.5631226, 19.6978787], [73.5630684, 19.6979857], [73.5629974, 19.6981214], [73.5627833, 19.6985159], [73.5626337, 19.6988531], [73.5626248, 19.6989822], [73.5626186, 19.69908], [73.5626315, 19.6991792], [73.5628208, 19.6997118], [73.5629398, 19.7000492], [73.5629639, 19.7000851], [73.5629913, 19.7001198], [73.563026, 19.7001492], [73.5630766, 19.7001855], [73.5631167, 19.7002303], [73.5631473, 19.7002777], [73.5631688, 19.700327], [73.5632147, 19.7006372], [73.5632372, 19.70089]]}}, {"type": "Feature", "properties": {"id": 561271189, "highway": "residential"}, "geometry": {"type": "LineString", "coordinates": [[73.5593378, 19.6979873], [73.5593163, 19.6983408], [73.5593431, 19.6988863], [73.5593217, 19.6990429], [73.5592734, 19.6991943], [73.5591661, 19.6994292], [73.5589676, 19.6997423], [73.5586297, 19.7002777]]}}, {"type": "Feature", "properties": {"id": 706558609, "highway": "unclassified"}, "geometry": {"type": "LineString", "coordinates": [[73.5569746, 19.6960631], [73.5570317, 19.6962078], [73.556993, 19.6969424]]}}, {"type": "Feature", "properties": {"id": 706558610, "highway": "residential"}, "geometry": {"type": "LineString", "coordinates": [[73.5583733, 19.6954047], [73.5584521, 19.6954979], [73.5585234, 19.6959514], [73.5583216, 19.6966779], [73.557997, 19.6972385], [73.5576936, 19.6983951]]}}, {"type": "Feature", "properties": {"id": 718430318, "highway": "unclassified"}, "geometry": {"type": "LineString", "coordinates": [[73.556993, 19.6969424], [73.5570701, 19.6985862]]}}, {"type": "Feature", "properties": {"id": 828242723, "highway": "residential"}, "geometry": {"type": "LineString", "coordinates": [[73.5611775, 19.6951814], [73.5611655, 19.6954652], [73.5611402, 19.6960657], [73.5611263, 19.6963969], [73.5609798, 19.6973093]]}}, {"type": "Feature", "properties": {"id": 828242724, "highway": "footway"}, "geometry": {"type": "LineString", "coordinates": [[73.563796, 19.6949001], [73.5637584, 19.6944102], [73.5636538, 19.6944203], [73.5636297, 19.6941905]]}}, {"type": "Feature", "properties": {"id": 828242727, "highway": "tertiary"}, "geometry": {"type": "LineString", "coordinates": [[73.5562031, 19.6947988], [73.556326, 19.6950011], [73.5565492, 19.6956627]]}}, {"type": "Feature", "properties": {"id": 866274406, "highway": "footway"}, "geometry": {"type": "LineString", "coordinates": [[73.5569522, 19.6991814], [73.5570217, 19.6990536], [73.5570861, 19.6990119], [73.5571384, 19.6989273], [73.557125, 19.6988718], [73.5570955, 19.6988288], [73.5570297, 19.6988389], [73.556905, 19.6988957], [73.5568474, 19.6989058], [73.556669, 19.6989311], [73.5565966, 19.6989462], [73.5565295, 19.6989223], [73.5564879, 19.6989601], [73.5564477, 19.6990813], [73.556445, 19.699195], [73.5564665, 19.6993124], [73.556492, 19.6993995], [73.5565228, 19.6994197], [73.556559, 19.699397], [73.5565818, 19.6993452], [73.556614, 19.6993061], [73.5566864, 19.699248], [73.5567159, 19.6992202], [73.5567146, 19.6991937], [73.5566918, 19.6991912], [73.5566113, 19.6992177], [73.5565805, 19.6992], [73.5565765, 19.6991596], [73.5566904, 19.6991104], [73.5567615, 19.6990826], [73.556791, 19.6990902], [73.55685, 19.6990574], [73.5568675, 19.699075], [73.5567843, 19.6991116], [73.5567575, 19.6992177], [73.5567669, 19.699272], [73.5568056, 19.6993015]]}}, {"type": "Feature", "properties": {"id": 866606406, "highway": "living_street"}, "geometry": {"type": "LineString", "coordinates": [[73.557371, 19.7017373], [73.5572826, 19.7013799], [73.5571715, 19.7009307], [73.5570136, 19.7002923], [73.5569207, 19.6999168], [73.5568023, 19.6994381]]}}, {"type": "Feature", "properties": {"id": 866606408, "highway": "living_street"}, "geometry": {"type": "LineString", "coordinates": [[73.5576506, 19.7012852], [73.557633, 19.7007902]]}}, {"type": "Feature", "properties": {"id": 866606409, "highway": "living_street"}, "geometry": {"type": "LineString", "coordinates": [[73.557633, 19.7007902], [73.5571715, 19.7009307]]}}, {"type": "Feature", "properties": {"id": 866606410, "highway": "living_street"}, "geometry": {"type": "LineString", "coordinates": [[73.5575507, 19.7003686], [73.5572972, 19.7002487], [73.5570136, 19.7002923]]}}, {"type": "Feature", "properties": {"id": 866606411, "highway": "living_street"}, "geometry": {"type": "LineString", "coordinates": [[73.5576258, 19.7004861], [73.5575507, 19.7003686], [73.5577076, 19.7003686], [73.5576258, 19.7004861]]}}, {"type": "Feature", "properties": {"id": 866606412, "highway": "living_street"}, "geometry": {"type": "LineString", "coordinates": [[73.557633, 19.7007902], [73.5576324, 19.7007668], [73.5576258, 19.7004861]]}}, {"type": "Feature", "properties": {"id": 866606413, "highway": "living_street"}, "geometry": {"type": "LineString", "coordinates": [[73.5577076, 19.7003686], [73.5578873, 19.7002462], [73.5579771, 19.7001186], [73.5580335, 19.6999419], [73.5581007, 19.6996219], [73.5581716, 19.699284]]}}, {"type": "Feature", "properties": {"id": 866606414, "highway": "living_street"}, "geometry": {"type": "LineString", "coordinates": [[73.5575051, 19.6998042], [73.5569207, 19.6999168]]}}, {"type": "Feature", "properties": {"id": 866606415, "highway": "service"}, "geometry": {"type": "LineString", "coordinates": [[73.5575346, 19.6992537], [73.5571121, 19.6992752], [73.5569753, 19.6993219], [73.5568023, 19.6994381], [73.5567154, 19.6993841]]}}, {"type": "Feature", "properties": {"id": 866618952, "highway": "service"}, "geometry": {"type": "LineString", "coordinates": [[73.5576354, 19.6990653], [73.5576308, 19.6992175], [73.5575346, 19.6992537]]}}, {"type": "Feature", "properties": {"id": 866618953, "highway": "living_street"}, "geometry": {"type": "LineString", "coordinates": [[73.5568023, 19.6994381], [73.5570192, 19.6993488], [73.5575302, 19.6993387], [73.5576227, 19.6993652], [73.5576616, 19.699374], [73.557726, 19.6994624], [73.5577743, 19.6995357], [73.5578107, 19.6995587], [73.5578641, 19.6995925], [73.5581007, 19.6996219]]}}, {"type": "Feature", "properties": {"id": 866618954, "highway": "footway"}, "geometry": {"type": "LineString", "coordinates": [[73.5578107, 19.6995587], [73.5577287, 19.6996215], [73.5576791, 19.6996392], [73.5576455, 19.6996417], [73.5575865, 19.6996632], [73.5575054, 19.6996759]]}}, {"type": "Feature", "properties": {"id": 866618975, "highway": "footway"}, "geometry": {"type": "LineString", "coordinates": [[73.5581716, 19.699284], [73.5581391, 19.6992604], [73.5581471, 19.6992137], [73.5581471, 19.6991821], [73.5580117, 19.6990963], [73.5579124, 19.6990963], [73.5576992, 19.6991859]]}}, {"type": "Feature", "properties": {"id": 866618978, "highway": "living_street"}, "geometry": {"type": "LineString", "coordinates": [[73.5580908, 19.7007162], [73.5576324, 19.7007668]]}}, {"type": "Feature", "properties": {"id": 1060144357, "highway": "unclassified"}, "geometry": {"type": "LineString", "coordinates": [[73.5569517, 19.696005], [73.5569746, 19.6960631]]}}, {"type": "Feature", "properties": {"id": 1060144358, "highway": "tertiary"}, "geometry": {"type": "LineString", "coordinates": [[73.5565492, 19.6956627], [73.5567101, 19.6959718], [73.5567263, 19.6959959], [73.5567691, 19.6960296]]}}, {"type": "Feature", "properties": {"id": 1227103177, "highway": "tertiary"}, "geometry": {"type": "LineString", "coordinates": [[73.5770652, 19.7195728], [73.5764426, 19.7189409], [73.5762196, 19.7188177], [73.5760179, 19.7184812], [73.5759506, 19.7181413], [73.5758055, 19.7169786], [73.575848, 19.7168386], [73.5759471, 19.7165754], [73.5761382, 19.7163122], [73.5766196, 19.7157892], [73.5771257, 19.7150062], [73.5773592, 19.7146231], [73.577653, 19.7141266], [73.5777521, 19.7138134], [73.5777946, 19.7135169], [73.5776955, 19.713247], [73.5774654, 19.7128872], [73.5774265, 19.7127473], [73.57743, 19.7126073], [73.5774725, 19.7124574], [73.5775999, 19.7121609], [73.577653, 19.7120076], [73.5776318, 19.7117877], [73.5775645, 19.7116378], [73.5774593, 19.7114664], [73.5773881, 19.7114434], [73.5773251, 19.7114587], [73.5772519, 19.711474], [73.5772072, 19.7114626], [73.5771889, 19.7114243], [73.5771828, 19.711365], [73.5772418, 19.7112731], [73.5774471, 19.7110971], [73.5776687, 19.7109344], [73.577878, 19.7107794], [73.5782927, 19.7104388], [73.5785204, 19.7102398], [73.5786484, 19.7100809], [73.578685, 19.709968], [73.5786769, 19.7098723], [73.5786301, 19.7097326], [73.5786606, 19.7096255], [73.5787602, 19.7095298], [73.5789643, 19.7093875], [73.5790202, 19.7093182], [73.579026, 19.7092739], [73.578976, 19.7092407], [73.5789084, 19.7092268], [73.5788584, 19.7092296], [73.5787966, 19.7092268], [73.5787436, 19.7091742], [73.5787377, 19.7091133], [73.5787583, 19.7090524], [73.5787877, 19.7089665], [73.5788083, 19.7088114], [73.5787348, 19.70854], [73.578623, 19.7083738], [73.5784671, 19.7082104], [73.5784259, 19.708083], [73.5784435, 19.7078919], [73.5783876, 19.707626], [73.5783465, 19.707374], [73.5783082, 19.7071053], [73.5782082, 19.7069392], [73.5777257, 19.706557], [73.5775521, 19.7064766], [73.5773344, 19.7064462], [73.5749309, 19.706136], [73.5741925, 19.7060667], [73.5740689, 19.7060529], [73.5738983, 19.7060058], [73.5738012, 19.7059199], [73.5736894, 19.7057787], [73.5735688, 19.7055073], [73.573354, 19.7051666], [73.5732011, 19.704945], [73.5730245, 19.7045434], [73.5729098, 19.7043579], [73.5725803, 19.7040394], [73.572345, 19.703887], [73.5722538, 19.7037707], [73.5720802, 19.703538], [73.571939, 19.7034356], [73.5713594, 19.7032251], [73.5711241, 19.7031226], [73.5706798, 19.7029647], [73.5704798, 19.7028401], [73.5703209, 19.7026933], [73.5702003, 19.7025548], [73.5700885, 19.702372], [73.5700002, 19.7022031], [73.5699149, 19.7020784], [73.5697973, 19.7019815], [73.5696502, 19.7019344], [73.5693972, 19.7019206], [73.5691765, 19.7018929], [73.5689765, 19.7018264], [73.5685499, 19.701602], [73.5684793, 19.7015411], [73.5684175, 19.7014442], [73.5683616, 19.7013611], [73.5682675, 19.7013278], [73.5681351, 19.7012918], [73.5680174, 19.701242], [73.5679291, 19.7011201], [73.5678762, 19.7009761], [73.5678232, 19.7008514], [73.5677261, 19.7007739], [73.567482, 19.700713], [73.5673143, 19.700616], [73.5671642, 19.7004277], [73.5670848, 19.7002587], [73.567073, 19.700195], [73.5671172, 19.7001202], [73.5672025, 19.7000288], [73.5673113, 19.6998959], [73.5674202, 19.6997297], [73.5674673, 19.699558], [73.5674408, 19.6993336], [73.5672025, 19.6982756], [73.5670525, 19.6978435], [73.5668655, 19.6975323], [73.5667579, 19.6972911], [73.5667323, 19.6971368], [73.5668245, 19.6969391], [73.5669167, 19.6968234], [73.5670141, 19.6965485], [73.5670448, 19.696235], [73.5670448, 19.6958926], [73.5670909, 19.6957238], [73.5672599, 19.6955068], [73.5673829, 19.6953863], [73.56755, 19.6952399], [73.5675765, 19.6951181], [73.5675118, 19.694891], [73.5674794, 19.6947995], [73.5674765, 19.6945918], [73.5674971, 19.6944312], [73.5674059, 19.6943065], [73.5673118, 19.6942816], [73.566844, 19.6942539], [73.5663302, 19.6943374]]}}, {"type": "Feature", "properties": {"id": 1359824104, "highway": "residential"}, "geometry": {"type": "LineString", "coordinates": [[73.565873, 19.6946149], [73.5659801, 19.694925], [73.5660096, 19.6950143], [73.5660101, 19.6950449], [73.5659998, 19.6950681], [73.5659846, 19.6950909], [73.5659604, 19.6951037], [73.5653945, 19.6952374], [73.565041, 19.6953213], [73.5646129, 19.6954196], [73.5638753, 19.695579], [73.5632134, 19.6957354]]}}, {"type": "Feature", "properties": {"id": 1359824105, "highway": "residential"}, "geometry": {"type": "LineString", "coordinates": [[73.5631911, 19.6952959], [73.5648855, 19.6951138], [73.5650935, 19.6950852], [73.5654131, 19.6950388], [73.5656997, 19.6949882], [73.5659801, 19.694925]]}}, {"type": "Feature", "properties": {"id": 1493577815, "highway": "residential"}, "geometry": {"type": "LineString", "coordinates": [[73.5591369, 19.695326], [73.5591922, 19.695602], [73.5592409, 19.6958016], [73.559263, 19.6958919], [73.5593621, 19.6962684], [73.5594399, 19.6966183], [73.5594948, 19.6969865], [73.5595444, 19.6970981], [73.5597319, 19.6971681], [73.5597886, 19.6972264], [73.5598611, 19.6974113], [73.5599729, 19.6976651]]}}, {"type": "Feature", "properties": {"id": 1493577877, "highway": "unclassified"}, "geometry": {"type": "LineString", "coordinates": [[73.5585234, 19.6959514], [73.5592409, 19.6958016]]}}, {"type": "Feature", "properties": {"id": 1493578377, "highway": "residential"}, "geometry": {"type": "LineString", "coordinates": [[73.5611263, 19.6963969], [73.5612659, 19.6964169], [73.5615851, 19.6963891], [73.5621216, 19.6963386], [73.5626526, 19.6962932], [73.5630532, 19.6962477]]}}, {"type": "Feature", "properties": {"id": 1493578905, "highway": "residential"}, "geometry": {"type": "LineString", "coordinates": [[73.5630532, 19.6962477], [73.5637225, 19.6961949], [73.5642713, 19.6961566], [73.5647511, 19.6961681], [73.5652918, 19.6960954]]}}, {"type": "Feature", "properties": {"id": 1493579920, "highway": "residential"}, "geometry": {"type": "LineString", "coordinates": [[73.5611402, 19.6960657], [73.5612991, 19.6960545], [73.561743, 19.6959926], [73.5621051, 19.6958954], [73.5624725, 19.6958587], [73.5628695, 19.695783], [73.5632134, 19.6957354]]}}, {"type": "Feature", "properties": {"id": 1493579974, "highway": "residential"}, "geometry": {"type": "LineString", "coordinates": [[73.5611655, 19.6954652], [73.5614221, 19.6954409], [73.561749, 19.6954277], [73.5620385, 19.695386], [73.5625686, 19.6953618], [73.5628814, 19.6953178], [73.5631911, 19.6952959]]}}, {"type": "Feature", "properties": {"id": 1493580252, "highway": "residential"}, "geometry": {"type": "LineString", "coordinates": [[73.5592734, 19.6991943], [73.5595752, 19.6993491], [73.5597308, 19.6991067], [73.5598273, 19.6991042], [73.5599748, 19.6991724]]}}, {"type": "Feature", "properties": {"id": 1493580253, "highway": "residential"}, "geometry": {"type": "LineString", "coordinates": [[73.5595752, 19.6993491], [73.5589476, 19.7004249], [73.5589288, 19.7004501], [73.5586297, 19.7002777]]}}, {"type": "Feature", "properties": {"id": 1493580254, "highway": "residential"}, "geometry": {"type": "LineString", "coordinates": [[73.5589288, 19.7004501], [73.5593821, 19.7007027]]}}, {"type": "Feature", "properties": {"id": 1493580255, "highway": "residential"}, "geometry": {"type": "LineString", "coordinates": [[73.5592409, 19.6958016], [73.5594918, 19.6957551], [73.559646, 19.6957199], [73.5596833, 19.6956166], [73.5600756, 19.695577], [73.5604912, 19.6955198], [73.5607714, 19.6955132], [73.5611077, 19.6954693], [73.5611655, 19.6954652]]}}, {"type": "Feature", "properties": {"id": 1527849046, "highway": "unclassified"}, "geometry": {"type": "LineString", "coordinates": [[73.5469101, 19.7050791], [73.5470605, 19.7050218], [73.5471135, 19.7049195], [73.5471949, 19.7047629], [73.5472551, 19.7046196], [73.5473648, 19.7045163], [73.5475064, 19.7044963], [73.5480485, 19.7045943], [73.548332, 19.7046378], [73.5485045, 19.7046581], [73.548718, 19.7046602], [73.5488003, 19.7046349], [73.548902, 19.7045537], [73.5491331, 19.7043506], [73.5495521, 19.7040287], [73.5502361, 19.7034572], [73.5502961, 19.7034052], [73.5506243, 19.7031208], [73.550957, 19.702851], [73.5514438, 19.7023608], [73.5518629, 19.7020243], [73.5522357, 19.7017023], [73.5525962, 19.7014413], [73.5531138, 19.7010787], [73.5534219, 19.7009685], [73.5536345, 19.7008872], [73.5537485, 19.700806], [73.5538563, 19.700661], [73.553998, 19.7004202], [73.5541305, 19.7002375], [73.5542846, 19.7001621], [73.5544109, 19.7000721], [73.5544818, 19.6999735], [73.5544879, 19.6998227], [73.5545619, 19.6996428], [73.5547406, 19.6994804], [73.5550579, 19.6992729], [73.555235, 19.6991568], [73.5556212, 19.6989598], [73.5560396, 19.6988386], [73.5565653, 19.6987376], [73.5570701, 19.6985862], [73.5571715, 19.6985558], [73.5576382, 19.6983992], [73.5576936, 19.6983951], [73.5581103, 19.6983639], [73.5584912, 19.6982982], [73.5588774, 19.6981719], [73.5593378, 19.6979873]]}}, {"type": "Feature", "properties": {"id": 1527849047, "highway": "residential"}, "geometry": {"type": "LineString", "coordinates": [[73.5609798, 19.6973093], [73.5605555, 19.6974166], [73.5602014, 19.697553], [73.5599729, 19.6976651], [73.5598206, 19.6977398], [73.5593378, 19.6979873]]}}, {"type": "Feature", "properties": {"id": 1527849048, "highway": "tertiary"}, "geometry": {"type": "LineString", "coordinates": [[73.5567691, 19.6960296], [73.5568475, 19.6960423], [73.5569517, 19.696005], [73.5579848, 19.6955145], [73.5582852, 19.6954161], [73.5583733, 19.6954047], [73.5587921, 19.6953504], [73.5591369, 19.695326], [73.5611775, 19.6951814]]}}]}