{"type": "FeatureCollection", "features": [{"type": "Feature", "properties": {"id": 265147293, "landuse": "reservoir", "natural": "water", "source": "bing", "water": "lake"}, "geometry": {"type": "Polygon", "coordinates": [[[73.5638456, 19.7014485], [73.5629746, 19.7015198], [73.5628834, 19.7016208], [73.5627761, 19.7016662], [73.5626983, 19.7017167], [73.5625562, 19.7017496], [73.5624355, 19.7018051], [73.5623792, 19.7019011], [73.5623175, 19.7020172], [73.5623228, 19.7021738], [73.5623336, 19.7022723], [73.5622987, 19.7024162], [73.5622155, 19.7024566], [73.5621083, 19.7025298], [73.5620171, 19.7025728], [73.5619715, 19.702646], [73.5619205, 19.7026712], [73.5618561, 19.7026536], [73.5617864, 19.7026637], [73.5617247, 19.7027596], [73.5616469, 19.7028859], [73.561604, 19.7029894], [73.5616174, 19.7031334], [73.5616442, 19.7032066], [73.561596, 19.7032874], [73.5615316, 19.7033758], [73.5614806, 19.7034743], [73.5614726, 19.7035753], [73.5615048, 19.7036308], [73.5616603, 19.703699], [73.5618374, 19.7037874], [73.5618937, 19.7038505], [73.5618749, 19.7038833], [73.5618159, 19.7038859], [73.5617381, 19.7038505], [73.5616818, 19.7038581], [73.5616281, 19.7038581], [73.5615906, 19.7038808], [73.5615933, 19.7039288], [73.5616067, 19.7039995], [73.5615745, 19.7040576], [73.5614699, 19.7040778], [73.5613867, 19.7040828], [73.5612982, 19.7040803], [73.5612231, 19.7040475], [73.5611588, 19.7040172], [73.5609522, 19.7043076], [73.5610085, 19.7043631], [73.5610568, 19.7044035], [73.5610971, 19.7044338], [73.5611695, 19.7044212], [73.561258, 19.7044363], [73.5613599, 19.7045298], [73.5613894, 19.70455], [73.5614216, 19.7045272], [73.5614082, 19.7044969], [73.5614162, 19.704406], [73.5614538, 19.7043732], [73.5614538, 19.7043328], [73.5614457, 19.7042773], [73.5615128, 19.7042747], [73.5617286, 19.7042612], [73.5618856, 19.7042646], [73.5619312, 19.7043025], [73.5619393, 19.7043959], [73.5619741, 19.7044313], [73.5620787, 19.7043985], [73.562229, 19.7043707], [73.5623148, 19.7043202], [73.5623845, 19.7042596], [73.5623899, 19.7041788], [73.5624328, 19.7041308], [73.5625052, 19.7041106], [73.5625455, 19.7041156], [73.5625508, 19.7041964], [73.562532, 19.7043252], [73.5625025, 19.7044187], [73.5624838, 19.7045525], [73.5625106, 19.7046535], [73.5625508, 19.7047368], [73.5626098, 19.7048227], [73.5626742, 19.7048707], [73.5627064, 19.7048782], [73.5626849, 19.7047545], [73.562642, 19.7046611], [73.5626366, 19.7045626], [73.5626232, 19.7044793], [73.5626554, 19.704454], [73.5626662, 19.7043606], [73.5626742, 19.704252], [73.5626876, 19.7041636], [73.5627278, 19.7041358], [73.5627949, 19.704151], [73.5629344, 19.7041762], [73.5630417, 19.7042141], [73.5631194, 19.7042369], [73.563165, 19.7043076], [73.5632053, 19.7042293], [73.5633099, 19.704156], [73.5635406, 19.7040803], [73.5638356, 19.7040702], [73.5639348, 19.7040727], [73.5640421, 19.7040576], [73.564077, 19.7040146], [73.5641682, 19.7039894], [73.5642943, 19.703954], [73.5644176, 19.7039616], [73.5644901, 19.7040348], [73.564592, 19.704098], [73.5647717, 19.7041687], [73.5648414, 19.7041459], [73.5646885, 19.7040677], [73.5646027, 19.703954], [73.5645464, 19.7038177], [73.5644659, 19.7037192], [73.5643962, 19.703699], [73.5643747, 19.7035929], [73.5643935, 19.7034793], [73.564415, 19.7034086], [73.5644552, 19.7033126], [73.5645571, 19.703247], [73.5647475, 19.7032217], [73.564879, 19.7032495], [73.5649863, 19.7032672], [73.5650345, 19.7033076], [73.5650721, 19.7033025], [73.5651016, 19.7032318], [73.5651982, 19.7031435], [73.5653779, 19.7030525], [73.5654986, 19.7030121], [73.5655764, 19.7029616], [73.5655844, 19.7028682], [73.5656541, 19.7027773], [73.5657748, 19.7026839], [73.5658768, 19.7026258], [73.5659733, 19.7026081], [73.5660243, 19.7026031], [73.5660457, 19.7025601], [73.5661208, 19.7025576], [73.5662094, 19.7025702], [73.5662952, 19.7025223], [73.5664052, 19.7024566], [73.5664722, 19.7023834], [73.5664025, 19.7023607], [73.5663059, 19.7023278], [73.5662415, 19.7022925], [73.5662496, 19.7022218], [73.5662737, 19.7021536], [73.5663032, 19.7021056], [73.5663488, 19.7020046], [73.5663891, 19.7019642], [73.5662657, 19.701997], [73.5661235, 19.702093], [73.566027, 19.702199], [73.5659331, 19.7021763], [73.5658633, 19.7020677], [73.5658043, 19.7019465], [73.5657158, 19.7018682], [73.5655147, 19.7018556], [73.5653618, 19.701795], [73.5651526, 19.7017369], [73.5649353, 19.701689], [73.5647905, 19.7016864], [73.5646939, 19.7017268], [73.5645973, 19.7017698], [73.5638456, 19.7014485]]]}}, {"type": "Feature", "properties": {"id": 801304754, "waterway": "dam"}, "geometry": {"type": "LineString", "coordinates": [[73.564665, 19.7013951], [73.5626963, 19.7015188]]}}, {"type": "Feature", "properties": {"id": 866618976, "name": "Lotus Pond", "natural": "water", "water": "pond"}, "geometry": {"type": "Polygon", "coordinates": [[[73.5577072, 19.6993488], [73.5577099, 19.6992894], [73.5577113, 19.6992162], [73.5577864, 19.6992187], [73.5578883, 19.69922], [73.557844, 19.6995041], [73.5577072, 19.6993488]]]}}, {"type": "Feature", "properties": {"id": 1499061350, "natural": "water", "water": "pond"}, "geometry": {"type": "Polygon", "coordinates": [[[73.5554624, 19.7021097], [73.5553631, 19.7021854], [73.5553685, 19.7025162], [73.5554248, 19.7025819], [73.5557735, 19.7026804], [73.5560471, 19.7028193], [73.5561973, 19.7028066], [73.5562509, 19.7027284], [73.5563743, 19.7021223], [73.5563287, 19.7020466], [73.5562536, 19.7019961], [73.5559612, 19.7020036], [73.5555053, 19.7020743], [73.5554624, 19.7021097]]]}}]}